CCSDS_OMM_VERS = 2.0
CREATION_DATE  = 
ORIGINATOR     = 

OBJECT_NAME    = STARLINK-36383
OBJECT_ID      = 2026-036U
CENTER_NAME    = EARTH
REF_FRAME      = TEME
TIME_SYSTEM    = UTC
MEAN_ELEMENT_THEORY = SGP/SGP4

EPOCH          = 2026-03-20T13:22:28.496064
MEAN_MOTION    = 15.82139582
ECCENTRICITY   = .00007234
INCLINATION    = 42.9970
RA_OF_ASC_NODE = 183.0139
ARG_OF_PERICENTER = 182.6100
MEAN_ANOMALY   = 177.4768

EPHEMERIS_TYPE = 0
CLASSIFICATION_TYPE = U
NORAD_CAT_ID   = 67922
ELEMENT_SET_NO = 999
REV_AT_EPOCH   = 539
BSTAR          = .11465245E-2
MEAN_MOTION_DOT = .249407E-2
MEAN_MOTION_DDOT = 0

CCSDS_OMM_VERS = 2.0
CREATION_DATE  = 
ORIGINATOR     = 

OBJECT_NAME    = STARLINK-36406
OBJECT_ID      = 2026-036V
CENTER_NAME    = EARTH
REF_FRAME      = TEME
TIME_SYSTEM    = UTC
MEAN_ELEMENT_THEORY = SGP/SGP4

EPOCH          = 2026-03-19T17:00:28.664640
MEAN_MOTION    = 15.50624370
ECCENTRICITY   = .0002822
INCLINATION    = 42.9996
RA_OF_ASC_NODE = 190.4955
ARG_OF_PERICENTER = 273.5571
MEAN_ANOMALY   = 86.4967

EPHEMERIS_TYPE = 0
CLASSIFICATION_TYPE = U
NORAD_CAT_ID   = 67923
ELEMENT_SET_NO = 999
REV_AT_EPOCH   = 523
BSTAR          = .1300949E-2
MEAN_MOTION_DOT = .76862E-3
MEAN_MOTION_DDOT = 0

CCSDS_OMM_VERS = 2.0
CREATION_DATE  = 
ORIGINATOR     = 

OBJECT_NAME    = STARLINK-36714
OBJECT_ID      = 2026-036W
CENTER_NAME    = EARTH
REF_FRAME      = TEME
TIME_SYSTEM    = UTC
MEAN_ELEMENT_THEORY = SGP/SGP4

EPOCH          = 2026-03-20T20:00:01.999008
MEAN_MOTION    = 15.50066182
ECCENTRICITY   = .0001252
INCLINATION    = 43.0005
RA_OF_ASC_NODE = 182.9880
ARG_OF_PERICENTER = 283.5381
MEAN_ANOMALY   = 259.3710

EPHEMERIS_TYPE = 0
CLASSIFICATION_TYPE = U
NORAD_CAT_ID   = 67924
ELEMENT_SET_NO = 999
REV_AT_EPOCH   = 543
BSTAR          = -.37523E-1
MEAN_MOTION_DOT = -.1937668E-1
MEAN_MOTION_DDOT = 0

CCSDS_OMM_VERS = 2.0
CREATION_DATE  = 
ORIGINATOR     = 

OBJECT_NAME    = STARLINK-36726
OBJECT_ID      = 2026-036X
CENTER_NAME    = EARTH
REF_FRAME      = TEME
TIME_SYSTEM    = UTC
MEAN_ELEMENT_THEORY = SGP/SGP4

EPOCH          = 2026-03-20T15:40:09.281280
MEAN_MOTION    = 15.50603354
ECCENTRICITY   = .0002295
INCLINATION    = 43.0003
RA_OF_ASC_NODE = 184.6679
ARG_OF_PERICENTER = 278.8036
MEAN_ANOMALY   = 81.2565

EPHEMERIS_TYPE = 0
CLASSIFICATION_TYPE = U
NORAD_CAT_ID   = 67925
ELEMENT_SET_NO = 999
REV_AT_EPOCH   = 538
BSTAR          = .16393E-2
MEAN_MOTION_DOT = .97117E-3
MEAN_MOTION_DDOT = 0

CCSDS_OMM_VERS = 2.0
CREATION_DATE  = 
ORIGINATOR     = 

OBJECT_NAME    = STARLINK-36758
OBJECT_ID      = 2026-036Y
CENTER_NAME    = EARTH
REF_FRAME      = TEME
TIME_SYSTEM    = UTC
MEAN_ELEMENT_THEORY = SGP/SGP4

EPOCH          = 2026-03-20T20:00:01.999008
MEAN_MOTION    = 15.50614244
ECCENTRICITY   = .0001777
INCLINATION    = 43.0006
RA_OF_ASC_NODE = 183.1371
ARG_OF_PERICENTER = 276.8939
MEAN_ANOMALY   = 205.5297

EPHEMERIS_TYPE = 0
CLASSIFICATION_TYPE = U
NORAD_CAT_ID   = 67926
ELEMENT_SET_NO = 999
REV_AT_EPOCH   = 543
BSTAR          = -.16664E-2
MEAN_MOTION_DOT = -.97023E-3
MEAN_MOTION_DDOT = 0

CCSDS_OMM_VERS = 2.0
CREATION_DATE  = 
ORIGINATOR     = 

OBJECT_NAME    = STARLINK-36728
OBJECT_ID      = 2026-036Z
CENTER_NAME    = EARTH
REF_FRAME      = TEME
TIME_SYSTEM    = UTC
MEAN_ELEMENT_THEORY = SGP/SGP4

EPOCH          = 2026-03-20T20:00:01.999008
MEAN_MOTION    = 15.50633585
ECCENTRICITY   = .0001618
INCLINATION    = 43.0000
RA_OF_ASC_NODE = 182.8855
ARG_OF_PERICENTER = 307.8784
MEAN_ANOMALY   = 275.9165

EPHEMERIS_TYPE = 0
CLASSIFICATION_TYPE = U
NORAD_CAT_ID   = 67927
ELEMENT_SET_NO = 999
REV_AT_EPOCH   = 543
BSTAR          = -.11395E-2
MEAN_MOTION_DOT = -.66754E-3
MEAN_MOTION_DDOT = 0

CCSDS_OMM_VERS = 2.0
CREATION_DATE  = 
ORIGINATOR     = 

OBJECT_NAME    = STARLINK-36771
OBJECT_ID      = 2026-036AA
CENTER_NAME    = EARTH
REF_FRAME      = TEME
TIME_SYSTEM    = UTC
MEAN_ELEMENT_THEORY = SGP/SGP4

EPOCH          = 2026-03-20T20:00:01.999008
MEAN_MOTION    = 15.50587635
ECCENTRICITY   = .0001588
INCLINATION    = 43.0006
RA_OF_ASC_NODE = 183.0148
ARG_OF_PERICENTER = 276.7010
MEAN_ANOMALY   = 255.2364

EPHEMERIS_TYPE = 0
CLASSIFICATION_TYPE = U
NORAD_CAT_ID   = 67928
ELEMENT_SET_NO = 999
REV_AT_EPOCH   = 543
BSTAR          = -.61595E-3
MEAN_MOTION_DOT = -.3632E-3
MEAN_MOTION_DDOT = 0

CCSDS_OMM_VERS = 2.0
CREATION_DATE  = 
ORIGINATOR     = 

OBJECT_NAME    = STARLINK-36809
OBJECT_ID      = 2026-036AB
CENTER_NAME    = EARTH
REF_FRAME      = TEME
TIME_SYSTEM    = UTC
MEAN_ELEMENT_THEORY = SGP/SGP4

EPOCH          = 2026-03-20T20:00:01.999008
MEAN_MOTION    = 15.50589720
ECCENTRICITY   = .0001621
INCLINATION    = 43.0004
RA_OF_ASC_NODE = 182.9909
ARG_OF_PERICENTER = 275.5086
MEAN_ANOMALY   = 265.6350

EPHEMERIS_TYPE = 0
CLASSIFICATION_TYPE = U
NORAD_CAT_ID   = 67929
ELEMENT_SET_NO = 999
REV_AT_EPOCH   = 543
BSTAR          = -.9015E-3
MEAN_MOTION_DOT = -.52893E-3
MEAN_MOTION_DDOT = 0

CCSDS_OMM_VERS = 2.0
CREATION_DATE  = 
ORIGINATOR     = 

OBJECT_NAME    = STARLINK-36865
OBJECT_ID      = 2026-036AC
CENTER_NAME    = EARTH
REF_FRAME      = TEME
TIME_SYSTEM    = UTC
MEAN_ELEMENT_THEORY = SGP/SGP4

EPOCH          = 2026-03-20T20:00:01.999008
MEAN_MOTION    = 15.50962242
ECCENTRICITY   = .0001932
INCLINATION    = 43.0002
RA_OF_ASC_NODE = 182.6611
ARG_OF_PERICENTER = 284.5750
MEAN_ANOMALY   = 29.7145

EPHEMERIS_TYPE = 0
CLASSIFICATION_TYPE = U
NORAD_CAT_ID   = 67930
ELEMENT_SET_NO = 999
REV_AT_EPOCH   = 543
BSTAR          = -.24015E-1
MEAN_MOTION_DOT = -.1292177E-1
MEAN_MOTION_DDOT = 0

CCSDS_OMM_VERS = 2.0
CREATION_DATE  = 
ORIGINATOR     = 

OBJECT_NAME    = STARLINK-36781
OBJECT_ID      = 2026-036AD
CENTER_NAME    = EARTH
REF_FRAME      = TEME
TIME_SYSTEM    = UTC
MEAN_ELEMENT_THEORY = SGP/SGP4

EPOCH          = 2026-03-20T20:00:01.999008
MEAN_MOTION    = 15.50791125
ECCENTRICITY   = .0001605
INCLINATION    = 42.9999
RA_OF_ASC_NODE = 182.7113
ARG_OF_PERICENTER = 271.9504
MEAN_ANOMALY   = 22.0124

EPHEMERIS_TYPE = 0
CLASSIFICATION_TYPE = U
NORAD_CAT_ID   = 67931
ELEMENT_SET_NO = 999
REV_AT_EPOCH   = 543
BSTAR          = -.36027E-1
MEAN_MOTION_DOT = -.1912499E-1
MEAN_MOTION_DDOT = 0

CCSDS_OMM_VERS = 2.0
CREATION_DATE  = 
ORIGINATOR     = 

OBJECT_NAME    = STARLINK-36301
OBJECT_ID      = 2026-037A
CENTER_NAME    = EARTH
REF_FRAME      = TEME
TIME_SYSTEM    = UTC
MEAN_ELEMENT_THEORY = SGP/SGP4

EPOCH          = 2026-03-20T20:00:01.999008
MEAN_MOTION    = 15.69825945
ECCENTRICITY   = .0001621
INCLINATION    = 42.9995
RA_OF_ASC_NODE = 130.4446
ARG_OF_PERICENTER = 279.3024
MEAN_ANOMALY   = 111.8535

EPHEMERIS_TYPE = 0
CLASSIFICATION_TYPE = U
NORAD_CAT_ID   = 67932
ELEMENT_SET_NO = 999
REV_AT_EPOCH   = 490
BSTAR          = -.18042E-1
MEAN_MOTION_DOT = -.196136E-1
MEAN_MOTION_DDOT = 0

CCSDS_OMM_VERS = 2.0
CREATION_DATE  = 
ORIGINATOR     = 

OBJECT_NAME    = STARLINK-36852
OBJECT_ID      = 2026-037B
CENTER_NAME    = EARTH
REF_FRAME      = TEME
TIME_SYSTEM    = UTC
MEAN_ELEMENT_THEORY = SGP/SGP4

EPOCH          = 2026-03-20T20:00:01.999008
MEAN_MOTION    = 15.52908060
ECCENTRICITY   = .0001017
INCLINATION    = 42.9998
RA_OF_ASC_NODE = 131.1938
ARG_OF_PERICENTER = 293.9911
MEAN_ANOMALY   = 155.5009

EPHEMERIS_TYPE = 0
CLASSIFICATION_TYPE = U
NORAD_CAT_ID   = 67933
ELEMENT_SET_NO = 999
REV_AT_EPOCH   = 499
BSTAR          = -.39173E-1
MEAN_MOTION_DOT = -.2206206E-1
MEAN_MOTION_DDOT = 0

