STARLINK-36383          
1 67922U 26036U   26079.55727426  .00249407  00000+0  11465-2 0  9999
2 67922  42.9970 183.0139 0000723 182.6100 177.4768 15.82139582  5395
STARLINK-36406          
1 67923U 26036V   26078.70866510  .00076862  00000+0  13009-2 0  9993
2 67923  42.9996 190.4955 0002822 273.5571  86.4967 15.50624370  5238
STARLINK-36714          
1 67924U 26036W   26079.83335647 -.01937668  00000+0 -37523-1 0  9990
2 67924  43.0005 182.9880 0001252 283.5381 259.3710 15.50066182  5431
STARLINK-36726          
1 67925U 26036X   26079.65288520  .00097117  00000+0  16393-2 0  9994
2 67925  43.0003 184.6679 0002295 278.8036  81.2565 15.50603354  5389
STARLINK-36758          
1 67926U 26036Y   26079.83335647 -.00097023  00000+0 -16664-2 0  9997
2 67926  43.0006 183.1371 0001777 276.8939 205.5297 15.50614244  5439
STARLINK-36728          
1 67927U 26036Z   26079.83335647 -.00066754  00000+0 -11395-2 0  9991
2 67927  43.0000 182.8855 0001618 307.8784 275.9165 15.50633585  5438
STARLINK-36771          
1 67928U 26036AA  26079.83335647 -.00036320  00000+0 -61595-3 0  9996
2 67928  43.0006 183.0148 0001588 276.7010 255.2364 15.50587635  5431
STARLINK-36809          
1 67929U 26036AB  26079.83335647 -.00052893  00000+0 -90150-3 0  9999
2 67929  43.0004 182.9909 0001621 275.5086 265.6350 15.50589720  5438
STARLINK-36865          
1 67930U 26036AC  26079.83335647 -.01292177  00000+0 -24015-1 0  9998
2 67930  43.0002 182.6611 0001932 284.5750  29.7145 15.50962242  5433
STARLINK-36781          
1 67931U 26036AD  26079.83335647 -.01912499  00000+0 -36027-1 0  9991
2 67931  42.9999 182.7113 0001605 271.9504  22.0124 15.50791125  5432
STARLINK-36301          
1 67932U 26037A   26079.83335647 -.01961360  00000+0 -18042-1 0  9991
2 67932  42.9995 130.4446 0001621 279.3024 111.8535 15.69825945  4907
STARLINK-36852          
1 67933U 26037B   26079.83335647 -.02206206  00000+0 -39173-1 0  9992
2 67933  42.9998 131.1938 0001017 293.9911 155.5009 15.52908060  4993
